{"type": "FeatureCollection", "features": [ {"type": "Feature", "properties": {"norad_id": 38779, "name": "GSAT-10 (GAGAN/PRN 128)", "group": "gnss", "lat": 0.00400605019332534, "lon": 108.32562562838753, "alt_km": 35776.87547029206, "timestamp": "2025-12-06T20:37:56.312554+00:00", "meta": {"OBJECT_NAME": "GSAT-10 (GAGAN/PRN 128)", "OBJECT_ID": "2012-051B", "EPOCH": "2025-12-06T12:20:49.655040", "MEAN_MOTION": 1.00273401, "ECCENTRICITY": 0.00022359, "INCLINATION": 0.024, "RA_OF_ASC_NODE": 263.6886, "ARG_OF_PERICENTER": 226.1309, "MEAN_ANOMALY": 213.9058, "EPHEMERIS_TYPE": 0, "CLASSIFICATION_TYPE": "U", "NORAD_CAT_ID": 38779, "ELEMENT_SET_NO": 999, "REV_AT_EPOCH": 4816, "BSTAR": 0, "MEAN_MOTION_DOT": -1.58e-06, "MEAN_MOTION_DDOT": 0}, "tle": {"line1": "1 38779U 12051B   25340.51446360 -.00000158  00000+0  00000+0 0  9999", "line2": "2 38779   0.0240 263.6886 0002235 226.1309 213.9058  1.00273401 48161"}}, "geometry": {"type": "Point", "coordinates": [108.32562562838753, 0.00400605019332534]}}, {"type": "Feature", "properties": {"norad_id": 38833, "name": "GPS BIIF-3  (PRN 24)", "group": "gnss", "lat": -5.0703060428007705, "lon": 147.70860661138374, "alt_km": 20018.093427617037, "timestamp": "2025-12-06T20:37:56.312566+00:00", "meta": {"OBJECT_NAME": "GPS BIIF-3  (PRN 24)", "OBJECT_ID": "2012-053A", "EPOCH": "2025-12-05T20:54:28.108224", "MEAN_MOTION": 2.00564871, "ECCENTRICITY": 0.01756137, "INCLINATION": 53.5564, "RA_OF_ASC_NODE": 151.5199, "ARG_OF_PERICENTER": 63.8922, "MEAN_ANOMALY": 297.9105, "EPHEMERIS_TYPE": 0, "CLASSIFICATION_TYPE": "U", "NORAD_CAT_ID": 38833, "ELEMENT_SET_NO": 999, "REV_AT_EPOCH": 9556, "BSTAR": 0, "MEAN_MOTION_DOT": 6.1e-07, "MEAN_MOTION_DDOT": 0}, "tle": {"line1": "1 38833U 12053A   25339.87115866  .00000061  00000+0  00000+0 0  9995", "line2": "2 38833  53.5564 151.5199 0175613  63.8922 297.9105  2.00564871 95560"}}, "geometry": {"type": "Point", "coordinates": [147.70860661138374, -5.0703060428007705]}}, {"type": "Feature", "properties": {"norad_id": 38857, "name": "GSAT0103 (GALILEO-FM3)", "group": "gnss", "lat": -37.712294758163935, "lon": -41.34562605447924, "alt_km": 23221.295188863376, "timestamp": "2025-12-06T20:37:56.312578+00:00", "meta": {"OBJECT_NAME": "GSAT0103 (GALILEO-FM3)", "OBJECT_ID": "2012-055A", "EPOCH": "2025-12-05T21:38:47.654016", "MEAN_MOTION": 1.70473243, "ECCENTRICITY": 0.00024504, "INCLINATION": 55.6874, "RA_OF_ASC_NODE": 106.8543, "ARG_OF_PERICENTER": 267.6787, "MEAN_ANOMALY": 92.2447, "EPHEMERIS_TYPE": 0, "CLASSIFICATION_TYPE": "U", "NORAD_CAT_ID": 38857, "ELEMENT_SET_NO": 999, "REV_AT_EPOCH": 8171, "BSTAR": 0, "MEAN_MOTION_DOT": 8e-08, "MEAN_MOTION_DDOT": 0}, "tle": {"line1": "1 38857U 12055A   25339.90194044  .00000008  00000+0  00000+0 0  9993", "line2": "2 38857  55.6874 106.8543 0002450 267.6787  92.2447  1.70473243 81715"}}, "geometry": {"type": "Point", "coordinates": [-41.34562605447924, -37.712294758163935]}}, {"type": "Feature", "properties": {"norad_id": 38953, "name": "BEIDOU-2 G6 (C02)", "group": "gnss", "lat": 2.215583059197004, "lon": 109.43345080428188, "alt_km": 35794.12021279693, "timestamp": "2025-12-06T20:37:56.312591+00:00", "meta": {"OBJECT_NAME": "BEIDOU-2 G6 (C02)", "OBJECT_ID": "2012-059A", "EPOCH": "2025-12-06T08:55:39.306144", "MEAN_MOTION": 1.00270289, "ECCENTRICITY": 0.00075388, "INCLINATION": 3.9323, "RA_OF_ASC_NODE": 75.5656, "ARG_OF_PERICENTER": 289.2939, "MEAN_ANOMALY": 288.5101, "EPHEMERIS_TYPE": 0, "CLASSIFICATION_TYPE": "U", "NORAD_CAT_ID": 38953, "ELEMENT_SET_NO": 999, "REV_AT_EPOCH": 4797, "BSTAR": 0, "MEAN_MOTION_DOT": -1.7e-06, "MEAN_MOTION_DDOT": 0}, "tle": {"line1": "1 38953U 12059A   25340.37198271 -.00000170  00000+0  00000+0 0  9994", "line2": "2 38953   3.9323  75.5656 0007538 289.2939 288.5101  1.00270289 47970"}}, "geometry": {"type": "Point", "coordinates": [109.43345080428188, 2.215583059197004]}}, {"type": "Feature", "properties": {"norad_id": 38977, "name": "LUCH 5B (SDCM/PRN 125)", "group": "gnss", "lat": -6.797645121854318, "lon": 9.537407523248744, "alt_km": 35806.14862643577, "timestamp": "2025-12-06T20:37:56.312603+00:00", "meta": {"OBJECT_NAME": "LUCH 5B (SDCM/PRN 125)", "OBJECT_ID": "2012-061A", "EPOCH": "2025-12-05T23:12:38.603808", "MEAN_MOTION": 1.00272178, "ECCENTRICITY": 0.00074333, "INCLINATION": 10.0624, "RA_OF_ASC_NODE": 51.767, "ARG_OF_PERICENTER": 189.4366, "MEAN_ANOMALY": 165.6208, "EPHEMERIS_TYPE": 0, "CLASSIFICATION_TYPE": "U", "NORAD_CAT_ID": 38977, "ELEMENT_SET_NO": 999, "REV_AT_EPOCH": 4766, "BSTAR": 0, "MEAN_MOTION_DOT": -1.35e-06, "MEAN_MOTION_DDOT": 0}, "tle": {"line1": "1 38977U 12061A   25339.96711347 -.00000135  00000+0  00000+0 0  9992", "line2": "2 38977  10.0624  51.7670 0007433 189.4366 165.6208  1.00272178 47668"}}, "geometry": {"type": "Point", "coordinates": [9.537407523248744, -6.797645121854318]}}, {"type": "Feature", "properties": {"norad_id": 39155, "name": "COSMOS 2485 (747)", "group": "gnss", "lat": -64.91279079549162, "lon": -21.126852885903872, "alt_km": 19085.618881735038, "timestamp": "2025-12-06T20:37:56.312615+00:00", "meta": {"OBJECT_NAME": "COSMOS 2485 (747)", "OBJECT_ID": "2013-019A", "EPOCH": "2025-12-05T02:32:45.729312", "MEAN_MOTION": 2.13102875, "ECCENTRICITY": 0.00246247, "INCLINATION": 65.3094, "RA_OF_ASC_NODE": 80.124, "ARG_OF_PERICENTER": 229.2984, "MEAN_ANOMALY": 130.4888, "EPHEMERIS_TYPE": 0, "CLASSIFICATION_TYPE": "U", "NORAD_CAT_ID": 39155, "ELEMENT_SET_NO": 999, "REV_AT_EPOCH": 9814, "BSTAR": 0, "MEAN_MOTION_DOT": -2.1e-07, "MEAN_MOTION_DDOT": 0}, "tle": {"line1": "1 39155U 13019A   25339.10608483 -.00000021  00000+0  00000+0 0  9991", "line2": "2 39155  65.3094  80.1240 0024624 229.2984 130.4888  2.13102875 98144"}}, "geometry": {"type": "Point", "coordinates": [-21.126852885903872, -64.91279079549162]}}, {"type": "Feature", "properties": {"norad_id": 39166, "name": "GPS BIIF-4  (PRN 27)", "group": "gnss", "lat": 54.447990224463084, "lon": 14.247157820195632, "alt_km": 19918.936973598706, "timestamp": "2025-12-06T20:37:56.312629+00:00", "meta": {"OBJECT_NAME": "GPS BIIF-4  (PRN 27)", "OBJECT_ID": "2013-023A", "EPOCH": "2025-12-06T05:36:29.430144", "MEAN_MOTION": 2.00565051, "ECCENTRICITY": 0.01374987, "INCLINATION": 54.6578, "RA_OF_ASC_NODE": 276.8328, "ARG_OF_PERICENTER": 48.5421, "MEAN_ANOMALY": 312.6375, "EPHEMERIS_TYPE": 0, "CLASSIFICATION_TYPE": "U", "NORAD_CAT_ID": 39166, "ELEMENT_SET_NO": 999, "REV_AT_EPOCH": 9201, "BSTAR": 0, "MEAN_MOTION_DOT": -3.2e-07, "MEAN_MOTION_DDOT": 0}, "tle": {"line1": "1 39166U 13023A   25340.23367396 -.00000032  00000+0  00000+0 0  9991", "line2": "2 39166  54.6578 276.8328 0137498  48.5421 312.6375  2.00565051 92017"}}, "geometry": {"type": "Point", "coordinates": [14.247157820195632, 54.447990224463084]}}, {"type": "Feature", "properties": {"norad_id": 39199, "name": "IRNSS-1A", "group": "gnss", "lat": 8.026010007368908, "lon": 78.10993465915583, "alt_km": 35873.716745309335, "timestamp": "2025-12-06T20:37:56.312644+00:00", "meta": {"OBJECT_NAME": "IRNSS-1A", "OBJECT_ID": "2013-034A", "EPOCH": "2025-12-02T19:49:26.431104", "MEAN_MOTION": 1.00279053, "ECCENTRICITY": 0.00216608, "INCLINATION": 35.2852, "RA_OF_ASC_NODE": 66.6964, "ARG_OF_PERICENTER": 185.4059, "MEAN_ANOMALY": 172.3398, "EPHEMERIS_TYPE": 0, "CLASSIFICATION_TYPE": "U", "NORAD_CAT_ID": 39199, "ELEMENT_SET_NO": 999, "REV_AT_EPOCH": 4539, "BSTAR": 0, "MEAN_MOTION_DOT": 6.5e-07, "MEAN_MOTION_DDOT": 0}, "tle": {"line1": "1 39199U 13034A   25336.82600036  .00000065  00000+0  00000+0 0  9995", "line2": "2 39199  35.2852  66.6964 0021660 185.4059 172.3398  1.00279053 45393"}}, "geometry": {"type": "Point", "coordinates": [78.10993465915583, 8.026010007368908]}}, {"type": "Feature", "properties": {"norad_id": 39533, "name": "GPS BIIF-5  (PRN 30)", "group": "gnss", "lat": 53.3261253465873, "lon": -104.77726487151087, "alt_km": 20313.575882734633, "timestamp": "2025-12-06T20:37:56.312656+00:00", "meta": {"OBJECT_NAME": "GPS BIIF-5  (PRN 30)", "OBJECT_ID": "2014-008A", "EPOCH": "2025-12-05T17:30:27.207648", "MEAN_MOTION": 2.00573953, "ECCENTRICITY": 0.00790348, "INCLINATION": 53.63, "RA_OF_ASC_NODE": 157.2106, "ARG_OF_PERICENTER": 226.4047, "MEAN_ANOMALY": 132.9556, "EPHEMERIS_TYPE": 0, "CLASSIFICATION_TYPE": "U", "NORAD_CAT_ID": 39533, "ELEMENT_SET_NO": 999, "REV_AT_EPOCH": 8580, "BSTAR": 0, "MEAN_MOTION_DOT": 6.8e-07, "MEAN_MOTION_DDOT": 0}, "tle": {"line1": "1 39533U 14008A   25339.72948157  .00000068  00000+0  00000+0 0  9993", "line2": "2 39533  53.6300 157.2106 0079034 226.4047 132.9556  2.00573953 85808"}}, "geometry": {"type": "Point", "coordinates": [-104.77726487151087, 53.3261253465873]}}, {"type": "Feature", "properties": {"norad_id": 39617, "name": "ASTRA 5B (EGNOS/PRN 123)", "group": "gnss", "lat": 0.043446159715551304, "lon": 48.8924647130248, "alt_km": 35803.555259016735, "timestamp": "2025-12-06T20:37:56.312669+00:00", "meta": {"OBJECT_NAME": "ASTRA 5B (EGNOS/PRN 123)", "OBJECT_ID": "2014-011B", "EPOCH": "2025-12-06T12:03:58.768992", "MEAN_MOTION": 1.00268771, "ECCENTRICITY": 0.00045813, "INCLINATION": 0.0511, "RA_OF_ASC_NODE": 21.9947, "ARG_OF_PERICENTER": 237.7107, "MEAN_ANOMALY": 20.3326, "EPHEMERIS_TYPE": 0, "CLASSIFICATION_TYPE": "U", "NORAD_CAT_ID": 39617, "ELEMENT_SET_NO": 999, "REV_AT_EPOCH": 4273, "BSTAR": 0, "MEAN_MOTION_DOT": 1.44e-06, "MEAN_MOTION_DDOT": 0}, "tle": {"line1": "1 39617U 14011B   25340.50276353  .00000144  00000+0  00000+0 0  9995", "line2": "2 39617   0.0511  21.9947 0004581 237.7107  20.3326  1.00268771 42736"}}, "geometry": {"type": "Point", "coordinates": [48.8924647130248, 0.043446159715551304]}}]}